FENGYUN 1C DEB          
1 31157U 99025BHK 17345.41671562  .00000102  00000-0  65118-4 0  9992
2 31157  98.6570  38.1683 0104781 164.2242 252.6655 14.19507256554853
